{
  "type": "FeatureCollection",
  "features": [
    {
      "type": "Feature",
      "properties": {
        "norad_id": 30368,
        "name": "FENGYUN 1C DEB",
        "group": "fengyun-1c-debris",
        "lat": -42.664722275888344,
        "lon": -88.76727826045801,
        "alt_km": 927.1804402736007,
        "timestamp": "2025-12-20T03:42:47.669072+00:00",
        "meta_object_name": "FENGYUN 1C DEB",
        "meta_object_id": "1999-025ACF",
        "meta_epoch": "2025-12-19T05:48:05.897088",
        "meta_mean_motion": 13.75371942,
        "meta_eccentricity": 0.0186176,
        "meta_inclination": 99.1886,
        "meta_ra_of_asc_node": 98.9318,
        "meta_arg_of_pericenter": 290.8052,
        "meta_mean_anomaly": 96.3005,
        "meta_ephemeris_type": 0,
        "meta_classification_type": "U",
        "meta_norad_cat_id": 30368,
        "meta_element_set_no": 999,
        "meta_rev_at_epoch": 94751,
        "meta_bstar": 0.00041325,
        "meta_mean_motion_dot": 4.06e-06,
        "meta_mean_motion_ddot": 0,
        "tle_line1": "1 30368U 99025ACF 25353.24173492  .00000406  00000+0  41325-3 0  9992",
        "tle_line2": "2 30368  99.1886  98.9318 0186176 290.8052  96.3005 13.75371942947517"
      },
      "geometry": {
        "type": "Point",
        "coordinates": [
          -88.76727826045801,
          -42.664722275888344
        ]
      }
    },
    {
      "type": "Feature",
      "properties": {
        "norad_id": 30369,
        "name": "FENGYUN 1C DEB",
        "group": "fengyun-1c-debris",
        "lat": -0.7940779051268068,
        "lon": -8.570058004257731,
        "alt_km": 927.039028293394,
        "timestamp": "2025-12-20T03:42:47.669082+00:00",
        "meta_object_name": "FENGYUN 1C DEB",
        "meta_object_id": "1999-025ACG",
        "meta_epoch": "2025-12-19T18:23:09.096000",
        "meta_mean_motion": 14.12062456,
        "meta_eccentricity": 0.0099533,
        "meta_inclination": 98.7213,
        "meta_ra_of_asc_node": 350.93,
        "meta_arg_of_pericenter": 175.497,
        "meta_mean_anomaly": 9.3927,
        "meta_ephemeris_type": 0,
        "meta_classification_type": "U",
        "meta_norad_cat_id": 30369,
        "meta_element_set_no": 999,
        "meta_rev_at_epoch": 97345,
        "meta_bstar": 0.00014872,
        "meta_mean_motion_dot": 2.43e-06,
        "meta_mean_motion_ddot": 0,
        "tle_line1": "1 30369U 99025ACG 25353.76607750  .00000243  00000+0  14872-3 0  9995",
        "tle_line2": "2 30369  98.7213 350.9300 0099533 175.4970   9.3927 14.12062456973454"
      },
      "geometry": {
        "type": "Point",
        "coordinates": [
          -8.570058004257731,
          -0.7940779051268068
        ]
      }
    },
    {
      "type": "Feature",
      "properties": {
        "norad_id": 30370,
        "name": "FENGYUN 1C DEB",
        "group": "fengyun-1c-debris",
        "lat": 64.44303649930723,
        "lon": -110.25003358204043,
        "alt_km": 893.375307561716,
        "timestamp": "2025-12-20T03:42:47.669092+00:00",
        "meta_object_name": "FENGYUN 1C DEB",
        "meta_object_id": "1999-025ACH",
        "meta_epoch": "2025-12-19T03:36:57.307392",
        "meta_mean_motion": 14.19182474,
        "meta_eccentricity": 0.00994106,
        "meta_inclination": 99.0565,
        "meta_ra_of_asc_node": 49.2404,
        "meta_arg_of_pericenter": 298.8735,
        "meta_mean_anomaly": 88.1165,
        "meta_ephemeris_type": 0,
        "meta_classification_type": "U",
        "meta_norad_cat_id": 30370,
        "meta_element_set_no": 999,
        "meta_rev_at_epoch": 97185,
        "meta_bstar": 0.00096354929,
        "meta_mean_motion_dot": 2.073e-05,
        "meta_mean_motion_ddot": 0,
        "tle_line1": "1 30370U 99025ACH 25353.15066328  .00002073  00000+0  96355-3 0  9999",
        "tle_line2": "2 30370  99.0565  49.2404 0099410 298.8735  88.1165 14.19182474971857"
      },
      "geometry": {
        "type": "Point",
        "coordinates": [
          -110.25003358204043,
          64.44303649930723
        ]
      }
    },
    {
      "type": "Feature",
      "properties": {
        "norad_id": 30371,
        "name": "FENGYUN 1C DEB",
        "group": "fengyun-1c-debris",
        "lat": 64.96915397721266,
        "lon": 18.19706754925197,
        "alt_km": 786.517272693779,
        "timestamp": "2025-12-20T03:42:47.669103+00:00",
        "meta_object_name": "FENGYUN 1C DEB",
        "meta_object_id": "1999-025ACJ",
        "meta_epoch": "2025-12-19T14:40:44.518368",
        "meta_mean_motion": 14.30266198,
        "meta_eccentricity": 0.0006851,
        "meta_inclination": 98.5753,
        "meta_ra_of_asc_node": 36.5145,
        "meta_arg_of_pericenter": 313.3743,
        "meta_mean_anomaly": 198.2304,
        "meta_ephemeris_type": 0,
        "meta_classification_type": "U",
        "meta_norad_cat_id": 30371,
        "meta_element_set_no": 999,
        "meta_rev_at_epoch": 98001,
        "meta_bstar": 0.00076294,
        "meta_mean_motion_dot": 1.936e-05,
        "meta_mean_motion_ddot": 0,
        "tle_line1": "1 30371U 99025ACJ 25353.61162637  .00001936  00000+0  76294-3 0  9998",
        "tle_line2": "2 30371  98.5753  36.5145 0006851 313.3743 198.2304 14.30266198980016"
      },
      "geometry": {
        "type": "Point",
        "coordinates": [
          18.19706754925197,
          64.96915397721266
        ]
      }
    },
    {
      "type": "Feature",
      "properties": {
        "norad_id": 30374,
        "name": "FENGYUN 1C DEB",
        "group": "fengyun-1c-debris",
        "lat": -77.54632653141567,
        "lon": -9.132351930201136,
        "alt_km": 708.400082241953,
        "timestamp": "2025-12-20T03:42:47.669113+00:00",
        "meta_object_name": "FENGYUN 1C DEB",
        "meta_object_id": "1999-025ACM",
        "meta_epoch": "2025-12-19T07:05:28.309920",
        "meta_mean_motion": 14.61366562,
        "meta_eccentricity": 0.0039501,
        "meta_inclination": 99.2728,
        "meta_ra_of_asc_node": 217.6179,
        "meta_arg_of_pericenter": 147.7365,
        "meta_mean_anomaly": 275.6288,
        "meta_ephemeris_type": 0,
        "meta_classification_type": "U",
        "meta_norad_cat_id": 30374,
        "meta_element_set_no": 999,
        "meta_rev_at_epoch": 99018,
        "meta_bstar": 0.0010032,
        "meta_mean_motion_dot": 4.959e-05,
        "meta_mean_motion_ddot": 0,
        "tle_line1": "1 30374U 99025ACM 25353.29546655  .00004959  00000+0  10032-2 0  9996",
        "tle_line2": "2 30374  99.2728 217.6179 0039501 147.7365 275.6288 14.61366562990185"
      },
      "geometry": {
        "type": "Point",
        "coordinates": [
          -9.132351930201136,
          -77.54632653141567
        ]
      }
    },
    {
      "type": "Feature",
      "properties": {
        "norad_id": 30377,
        "name": "FENGYUN 1C DEB",
        "group": "fengyun-1c-debris",
        "lat": -20.80645185548358,
        "lon": -169.97883249067797,
        "alt_km": 840.6487673188767,
        "timestamp": "2025-12-20T03:42:47.669123+00:00",
        "meta_object_name": "FENGYUN 1C DEB",
        "meta_object_id": "1999-025ACQ",
        "meta_epoch": "2025-12-19T01:18:58.423104",
        "meta_mean_motion": 13.99177576,
        "meta_eccentricity": 0.01179817,
        "meta_inclination": 98.8927,
        "meta_ra_of_asc_node": 12.3641,
        "meta_arg_of_pericenter": 249.0537,
        "meta_mean_anomaly": 175.7827,
        "meta_ephemeris_type": 0,
        "meta_classification_type": "U",
        "meta_norad_cat_id": 30377,
        "meta_element_set_no": 999,
        "meta_rev_at_epoch": 96295,
        "meta_bstar": 0.00030141611,
        "meta_mean_motion_dot": 4.2e-06,
        "meta_mean_motion_ddot": 0,
        "tle_line1": "1 30377U 99025ACQ 25353.05484286  .00000420  00000+0  30142-3 0  9998",
        "tle_line2": "2 30377  98.8927  12.3641 0117981 249.0537 175.7827 13.99177576962952"
      },
      "geometry": {
        "type": "Point",
        "coordinates": [
          -169.97883249067797,
          -20.80645185548358
        ]
      }
    },
    {
      "type": "Feature",
      "properties": {
        "norad_id": 30379,
        "name": "FENGYUN 1C DEB",
        "group": "fengyun-1c-debris",
        "lat": -15.620181393055306,
        "lon": -173.7944632495125,
        "alt_km": 858.6575676373577,
        "timestamp": "2025-12-20T03:42:47.669133+00:00",
        "meta_object_name": "FENGYUN 1C DEB",
        "meta_object_id": "1999-025ACS",
        "meta_epoch": "2025-12-19T06:36:08.252928",
        "meta_mean_motion": 14.08041217,
        "meta_eccentricity": 0.0035537,
        "meta_inclination": 98.7578,
        "meta_ra_of_asc_node": 7.8223,
        "meta_arg_of_pericenter": 260.2911,
        "meta_mean_anomaly": 159.4784,
        "meta_ephemeris_type": 0,
        "meta_classification_type": "U",
        "meta_norad_cat_id": 30379,
        "meta_element_set_no": 999,
        "meta_rev_at_epoch": 96909,
        "meta_bstar": 0.00032138,
        "meta_mean_motion_dot": 5.07e-06,
        "meta_mean_motion_ddot": 0,
        "tle_line1": "1 30379U 99025ACS 25353.27509552  .00000507  00000+0  32138-3 0  9991",
        "tle_line2": "2 30379  98.7578   7.8223 0035537 260.2911 159.4784 14.08041217969093"
      },
      "geometry": {
        "type": "Point",
        "coordinates": [
          -173.7944632495125,
          -15.620181393055306
        ]
      }
    }
  ]
}